{
    "type": "FeatureCollection",
    "features": [
        {
            "type": "Feature",
            "id": "dev-41126040",
            "geometry": {
                "type": "Point",
                "coordinates": [102.09359741210938, 30.054807662963867]
            },
            "properties": {
                "OBJECTID": "dev-41126040",
                "名称": "5020",
                "经度": 102.09359741210938,
                "纬度": 30.054807662963867,
                "ChannelOneLpX": [-0.3245193,-0.3246132,-0.324336,-0.3243585,-0.3242976,-0.3245151,-0.3243738,-0.3244458,-0.3247044,-0.3243903,-0.3244803,-0.324375,-0.3245097,-0.3244278,-0.3243114,-0.3242199,-0.3244029,-0.3242025,-0.3244077,-0.3243564,-0.3242457,-0.324051,-0.3240288,-0.3240678,-0.3240381,-0.3240717,-0.3241392,-0.3242568,-0.324231,-0.3238707,-0.3239196,-0.323592,-0.3236454,-0.3238299,-0.3239382,-0.3234057,-0.3234345,-0.3233721,-0.3236262,-0.3232623,-0.3231339,-0.3235143,-0.3233238,-0.3233901,-0.3233451,-0.3233688,-0.3233121,-0.3233265,-0.3232566,-0.3233568,-0.323121,-0.3231963,-0.3231369,-0.3230592,-0.3231705,-0.3231375,-0.3231654,-0.3230037,-0.3229905,-0.3227376,-0.3230631,-0.3230118,-0.3230385,-0.3229203,-0.3228996,-0.3228165,-0.322821,-0.3227946,-0.322824,-0.3227436,-0.3224085,-0.3225459,-0.3225912,-0.3222546,-0.3222999,-0.322296,-0.3226314,-0.3224625,-0.3224184,-0.3224892,-0.3222327,-0.3222855,-0.3225336,-0.3222984,-0.3222117,-0.3220923,-0.3220587,-0.3220968,-0.322221,-0.3219774,-0.3220503,-0.322149],
                "ChannelOneLpY": [2.7781485,2.778213,2.7781899,2.7780066,2.7781212,2.7781152,2.7780822,2.7783594,2.7782463,2.7782136,2.778303,2.7783033,2.778381,2.7783261,2.7784935,2.7782793,2.7783804,2.7783096,2.778579,2.7782319,2.7784014,2.7784638,2.7783642,2.7784914,2.7785415,2.7784728,2.7784236,2.7784293,2.7784686,2.778546,2.7785649,2.7785715,2.778534,2.7787482,2.7785343,2.7785691,2.7787047,2.7785058,2.7787677,2.778558,2.7785826,2.7788886,2.7788037,2.7786429,2.7787872,2.7786606,2.778753,2.778789,2.7786882,2.7788874,2.778618,2.7789162,2.7789036,2.7788316,2.7788586,2.7789939,2.7789438,2.7788202,2.7790677,2.7789738,2.7790131,2.7789591,2.779119,2.7791289,2.7789981,2.7790695,2.779179,2.7789843,2.7791868,2.7790722,2.77926,2.7790914,2.779191,2.7792678,2.7791811,2.7792165,2.7790536,2.779158,2.7791544,2.7792873,2.7793656,2.779002,2.7793839,2.7792699,2.7793533,2.7793272,2.7794799,2.7794313,2.7793545,2.7795567,2.779485,2.7795339],
                "ChannelOneLpZ": [-2.4491289,-2.4491349,-2.4491703,-2.4489285,-2.4490527,-2.4489351,-2.449089,-2.4491205,-2.44911,-2.4490722,-2.4488478,-2.4489378,-2.4488784,-2.4487548,-2.4489291,-2.4488142,-2.4487191,-2.4487404,-2.4489378,-2.448645,-2.448765,-2.4488298,-2.4487443,-2.4487422,-2.4487221,-2.4487197,-2.4486402,-2.4485472,-2.4485859,-2.4485817,-2.4485484,-2.4485505,-2.4485487,-2.4485238,-2.4484062,-2.4484542,-2.4484455,-2.4481602,-2.4482067,-2.4481956,-2.4482931,-2.4484056,-2.4483822,-2.4481581,-2.4482454,-2.4480162,-2.4481365,-2.4480594,-2.4480438,-2.4480639,-2.4478788,-2.4481182,-2.4480564,-2.448027,-2.4478371,-2.447964,-2.4479001,-2.4478398,-2.4479127,-2.4477771,-2.4478869,-2.4478365,-2.4477864,-2.4478422,-2.4477831,-2.4477789,-2.4478302,-2.4475818,-2.4477,-2.4476616,-2.4477465,-2.4474786,-2.4474567,-2.4475308,-2.447454,-2.4473973,-2.4472623,-2.4473481,-2.4473736,-2.4472926,-2.4474594,-2.4470478,-2.4473445,-2.4471129,-2.447283,-2.4471543,-2.4472758,-2.4472146,-2.4470916,-2.4473595,-2.447076,-2.4470496],
                "ChannelTwoLpX": [-0.0007107,-0.0007245,-0.0007431,-0.0007461,-0.0007458,-0.0007392,-0.0007074,-0.0007326,-0.0007287,-0.0007368,-0.0007422,-0.0007188,-0.0007446,-0.00075,-0.0007284,-0.0007476,-0.0007413,-0.0007452,-0.0007305,-0.0007392,-0.0007449,-0.0007512,-0.0007191,-0.0007209,-0.0007164,-0.0007197,-0.0007377,-0.0007278,-0.0007365,-0.0007434,-0.0007302,-0.000732,-0.0007389,-0.000729,-0.000747,-0.0007332,-0.0007158,-0.0007443,-0.000756,-0.0007452,-0.0007338,-0.000726,-0.0007314,-0.0007236,-0.0007197,-0.0007326,-0.0007203,-0.0007302,-0.0007314,-0.0007287,-0.0007365,-0.0007284,-0.000714,-0.0007173,-0.0007206,-0.000726,-0.0007278,-0.0007224,-0.0007347,-0.0007287,-0.0007434,-0.0007128,-0.0007311,-0.0007137,-0.0007302,-0.0007476,-0.0007083,-0.0007308,-0.0007251,-0.0007359,-0.0007176,-0.0007383,-0.00075,-0.0007245,-0.0007323,-0.00075,-0.0007389,-0.0007152,-0.0007329,-0.0007167,-0.0007137,-0.0007332,-0.0007395,-0.0007593,-0.0007353,-0.0007287,-0.0007248,-0.0007275,-0.0007044,-0.0007122,-0.0007479,-0.0007656],
                "ChannelTwoLpY": [-0.0007368,-0.0007485,-0.0007377,-0.0007404,-0.0007293,-0.0007398,-0.0007416,-0.0007386,-0.0007398,-0.0007389,-0.0007461,-0.0007374,-0.0007599,-0.0007506,-0.0007332,-0.0007476,-0.0007413,-0.0007302,-0.0007503,-0.0007503,-0.0007287,-0.0007491,-0.000738,-0.0007299,-0.000741,-0.0007368,-0.0007395,-0.0007494,-0.0007311,-0.0007425,-0.0007539,-0.0007365,-0.0007353,-0.0007512,-0.0007584,-0.0007299,-0.0007386,-0.0007434,-0.0007398,-0.0007479,-0.0007443,-0.0007629,-0.000741,-0.0007602,-0.0007575,-0.0007404,-0.0007485,-0.000735,-0.0007359,-0.0007356,-0.0007452,-0.0007494,-0.0007425,-0.0007413,-0.0007533,-0.0007365,-0.0007353,-0.0007413,-0.0007563,-0.0007431,-0.0007149,-0.0007425,-0.0007524,-0.0007437,-0.000732,-0.0007344,-0.0007479,-0.0007341,-0.0007569,-0.0007386,-0.0007356,-0.0007392,-0.0007509,-0.0007584,-0.0007425,-0.000741,-0.0007407,-0.0007251,-0.0007476,-0.0007542,-0.0007335,-0.0007257,-0.0007503,-0.0007602,-0.0007374,-0.0007446,-0.0007332,-0.0007509,-0.0007536,-0.0007449,-0.0007485,-0.0007416],
                "ChannelTwoLpZ": [0.0768444,0.0768465,0.0768615,0.0768633,0.0768702,0.0768645,0.0768387,0.0768594,0.0768588,0.0768639,0.0768339,0.0768432,0.0768486,0.0768765,0.0768666,0.0768375,0.0768522,0.0768723,0.0768651,0.0768501,0.0768444,0.0768573,0.0768624,0.0768477,0.0768675,0.076866,0.076857,0.0768222,0.076854,0.0768588,0.0768822,0.0768327,0.0768636,0.0768636,0.0768321,0.0768597,0.0768666,0.0768474,0.0768528,0.0768474,0.0768573,0.0768393,0.0768558,0.0768522,0.0768675,0.0768654,0.0768336,0.0768456,0.0768684,0.0768657,0.0768135,0.0768432,0.0768669,0.0768819,0.0768645,0.0768393,0.0768486,0.0768324,0.076854,0.076857,0.0768537,0.0768666,0.0768651,0.0768525,0.0768669,0.0768483,0.0768522,0.0768495,0.0768513,0.0768417,0.0768474,0.0768705,0.0768441,0.0768333,0.0768597,0.0768549,0.0768711,0.0768462,0.0768504,0.0768609,0.0768261,0.0768558,0.0768639,0.076872,0.0768663,0.0768489,0.0768399,0.0768552,0.0768693,0.0768429,0.0768411,0.0768504]
            }
        },
        {
            "type": "Feature",
            "id": "dev-41158808",
            "geometry": {
                "type": "Point",
                "coordinates": [102.0933837890625, 30.052631378173828]
            },
            "properties": {
                "OBJECTID": "dev-41158808",
                "名称": "5024",
                "经度": 102.0933837890625,
                "纬度": 30.052631378173828,
                "ChannelOneLpX": [1.3525929,1.3525686,1.3526589,1.3526172,1.3529043,1.3526739,1.3525626,1.3526502,1.3526715,1.3528659,1.3528014,1.3529064,1.3528179,1.3530603,1.3528848,1.3531365,1.3530777,1.3530699,1.3530069,1.3530876,1.3529619,1.3530132,1.353042,1.3532751,1.353135,1.3530861,1.3532007,1.3532199,1.3533519,1.353336,1.3532688,1.3532421,1.3533138,1.3534065,1.3533717,1.3533018,1.3533714,1.3534872,1.3534893,1.3535409,1.3535049,1.3535457,1.3536618,1.3535715,1.3535571,1.3536594,1.3537194,1.3537305,1.3536789,1.3537734,1.3538682,1.3538559,1.3538178,1.3537443,1.3538289,1.353966,1.3538136,1.3538835,1.3540401,1.3539237,1.3539102,1.3541055,1.354149,1.3541265,1.3541055,1.354155,1.3543296,1.3542807,1.3541469,1.354239,1.3543203,1.3543608,1.3544496,1.3543473,1.3544181,1.3542855,1.3545174,1.3545747,1.354521,1.354479,1.3546383,1.3544496,1.3545471,1.3545984,1.3546029,1.3547595,1.3547598,1.3547127,1.3548714,1.3549656,1.354938,1.3549836,1.3549047,1.3551429,1.3549428,1.3550739,1.3550067,1.355028,1.3551891,1.3550427,1.3550784,1.3551741,1.3553667,1.3553883,1.3552494,1.3555779,1.3553718,1.3553712,1.3556076,1.3555083],
                "ChannelOneLpY": [-1.434051,-1.4339868,-1.4340705,-1.4339583,-1.4342355,-1.433919,-1.4337564,-1.4338335,-1.4337918,-1.4338983,-1.4337642,-1.4338464,-1.4337714,-1.4340138,-1.4337747,-1.4339538,-1.4338527,-1.4338278,-1.4337141,-1.4337237,-1.4336211,-1.4335575,-1.4335635,-1.4337294,-1.4335791,-1.4335353,-1.4336031,-1.4335392,-1.4336544,-1.4336349,-1.4335317,-1.4334042,-1.4334372,-1.4334966,-1.433379,-1.4332176,-1.4332302,-1.4333448,-1.433295,-1.4333304,-1.4331891,-1.4331999,-1.4332584,-1.4331363,-1.4330769,-1.4332095,-1.4331027,-1.4330136,-1.4330619,-1.4330601,-1.4331108,-1.4330157,-1.4329068,-1.4329344,-1.4328825,-1.4329509,-1.4327817,-1.4328084,-1.4328858,-1.432695,-1.4326419,-1.4328516,-1.4328333,-1.4327019,-1.4326422,-1.4326779,-1.4327673,-1.4327082,-1.4324451,-1.4325147,-1.4325891,-1.4325843,-1.432521,-1.4324103,-1.4323566,-1.4321976,-1.4323629,-1.4324049,-1.4322651,-1.4321274,-1.4322225,-1.4319216,-1.4319243,-1.4319939,-1.4319174,-1.431993,-1.4318553,-1.4317917,-1.4318643,-1.4319327,-1.4318193,-1.4318037,-1.4316447,-1.4318643,-1.4315766,-1.4316771,-1.4315544,-1.4314071,-1.4315523,-1.4314179,-1.4313537,-1.4313864,-1.4314029,-1.4314752,-1.4311686,-1.4314671,-1.4312487,-1.4311161,-1.4314122,-1.4312151],
                "ChannelOneLpZ": [-1.2543084,-1.2542379,-1.2543729,-1.2542325,-1.2544524,-1.254192,-1.2540576,-1.2540951,-1.2541005,-1.254195,-1.2540837,-1.2541164,-1.2540225,-1.2541992,-1.2539799,-1.2541323,-1.2541098,-1.2540543,-1.2539484,-1.2539598,-1.253844,-1.2538566,-1.2538212,-1.254,-1.2538284,-1.2537525,-1.2538713,-1.2538542,-1.2539181,-1.253865,-1.2538185,-1.2536301,-1.2537243,-1.2537108,-1.253661,-1.2535083,-1.2535443,-1.2536031,-1.2535749,-1.2536151,-1.2535272,-1.2535275,-1.2535383,-1.2534153,-1.2533682,-1.2534636,-1.2534003,-1.2533703,-1.2532689,-1.2533094,-1.2533592,-1.2533043,-1.2532587,-1.2530736,-1.2531654,-1.2531864,-1.2530916,-1.2530919,-1.2531972,-1.2530277,-1.2529815,-1.2530688,-1.2530553,-1.2529533,-1.2529029,-1.2528834,-1.2529806,-1.2528936,-1.2527271,-1.2527658,-1.2528213,-1.2527283,-1.2528273,-1.252632,-1.2527424,-1.2524838,-1.2526749,-1.2527121,-1.2525765,-1.2524733,-1.252605,-1.2523485,-1.2524232,-1.2524751,-1.252374,-1.2523698,-1.252323,-1.2522477,-1.2523275,-1.2523497,-1.2522219,-1.2522354,-1.2520914,-1.2522366,-1.2519768,-1.2520749,-1.2518808,-1.2518766,-1.2519249,-1.2517491,-1.2517401,-1.2517719,-1.251882,-1.2518355,-1.2516405,-1.2518907,-1.2517083,-1.2516285,-1.2517845,-1.2516081],
                "ChannelTwoLpX": [0.0001488,0.000144,0.0001566,0.0001428,0.000147,0.000126,0.0001281,0.0001557,0.0001548,0.0001563,0.0001551,0.0001491,0.0001422,0.0001461,0.0001548,0.0001356,0.0001329,0.0001443,0.0001512,0.0001341,0.0001482,0.0001455,0.0001476,0.0001401,0.0001428,0.0001467,0.0001473,0.0001515,0.0001488,0.0001302,0.0001614,0.0001395,0.0001578,0.0001464,0.0001416,0.0001407,0.0001635,0.0001467,0.0001383,0.0001428,0.00015,0.0001389,0.0001626,0.0001485,0.000156,0.0001545,0.0001545,0.0001551,0.0001272,0.0001653,0.0001413,0.0001548,0.00015,0.0001323,0.0001458,0.0001602,0.0001431,0.0001581,0.0001623,0.0001476,0.0001524,0.0001428,0.0001464,0.0001455,0.0001497,0.0001539,0.000144,0.0001341,0.0001602,0.000147,0.0001425,0.0001563,0.0001548,0.0001542,0.0001542,0.0001437,0.0001425,0.0001554,0.0001488,0.0001539,0.000135,0.0001455,0.0001464,0.0001482,0.0001575,0.0001362,0.0001593,0.00015,0.0001407,0.000153,0.0001308,0.0001473,0.0001638,0.0001434,0.0001587,0.0001437,0.000147,0.0001485,0.0001362,0.0001389,0.0001515,0.0001476,0.0001626,0.000147,0.0001575,0.0001353,0.000144,0.0001623,0.0001251,0.0001422],
                "ChannelTwoLpY": [-0.0012015,-0.0011811,-0.0011895,-0.0011766,-0.0012048,-0.001167,-0.0011964,-0.0011823,-0.0011895,-0.0011892,-0.001197,-0.0012009,-0.0011847,-0.0011772,-0.0011925,-0.0011907,-0.0011796,-0.0011949,-0.0011874,-0.0011931,-0.0011673,-0.0011907,-0.0011943,-0.0011814,-0.0011925,-0.0011994,-0.0012,-0.0011676,-0.0011892,-0.001203,-0.0011862,-0.0011817,-0.0011931,-0.0011886,-0.0011874,-0.0011763,-0.0011874,-0.0011892,-0.0012006,-0.0011814,-0.0011922,-0.0011979,-0.0011886,-0.0011823,-0.0011958,-0.0012045,-0.0011991,-0.0011931,-0.0011928,-0.0011922,-0.0011817,-0.0011817,-0.0011823,-0.0011724,-0.001179,-0.0011925,-0.0011904,-0.0012012,-0.0012069,-0.0012054,-0.0011985,-0.0011967,-0.0011868,-0.0011865,-0.0011844,-0.0011844,-0.0011865,-0.0011913,-0.001194,-0.0012018,-0.0012015,-0.0011883,-0.0012093,-0.0012009,-0.0011838,-0.0011823,-0.0011832,-0.001188,-0.001179,-0.0011853,-0.0012009,-0.0011763,-0.0011826,-0.0011895,-0.0011871,-0.0011787,-0.0012015,-0.001209,-0.0011775,-0.001188,-0.0011787,-0.0011946,-0.0011889,-0.0011796,-0.0011907,-0.0011889,-0.0011658,-0.001206,-0.001173,-0.0011859,-0.0011931,-0.0011964,-0.0011913,-0.0011865,-0.0011928,-0.0011832,-0.0011814,-0.0011775,-0.0011847,-0.0011853],
                "ChannelTwoLpZ": [0.0769974,0.0770055,0.0769917,0.0770022,0.0770175,0.076986,0.0769935,0.0769986,0.0769854,0.0769698,0.076962,0.0769833,0.0770121,0.0770007,0.0769737,0.0770007,0.076968,0.0769905,0.0770034,0.076974,0.0769902,0.076986,0.0769968,0.0769815,0.0769818,0.0769944,0.077013,0.0769971,0.0769968,0.0769902,0.0769938,0.0769857,0.0769917,0.0769905,0.0769935,0.0769965,0.0770013,0.0770022,0.0769965,0.0769989,0.0769887,0.0769857,0.0770031,0.0769824,0.0769515,0.0769794,0.0769869,0.076998,0.076992,0.0769893,0.0769812,0.0769866,0.0769851,0.0770025,0.0769989,0.0769725,0.076977,0.0769884,0.0769944,0.0769806,0.0769866,0.0770172,0.0769953,0.0769647,0.0769971,0.0769758,0.0769854,0.0769719,0.0769989,0.0769986,0.0770034,0.0769884,0.0769908,0.076998,0.0770199,0.0769908,0.0770016,0.0769965,0.0769932,0.0769677,0.0769875,0.0769566,0.0769848,0.0769902,0.0769842,0.0770055,0.0769845,0.0769806,0.0770001,0.0770046,0.076989,0.0769863,0.0769824,0.0770094,0.0769884,0.0769815,0.0770052,0.0769905,0.0769896,0.0769929,0.0769941,0.0769968,0.0769995,0.0769761,0.0770271,0.0769773,0.0769695,0.0769905,0.0769854,0.0769854]
            }
        },
        {
            "type": "Feature",
            "id": "dev-41109656",
            "geometry": {
                "type": "Point",
                "coordinates": [102.09231567382812, 30.054187774658203]
            },
            "properties": {
                "OBJECTID": "dev-41109656",
                "名称": "5018",
                "经度": 102.09231567382812,
                "纬度": 30.054187774658203,
                "ChannelOneLpX": [0.6888711,0.6889143,0.6888798,0.6889752,0.688932,0.6888933,0.6888675,0.6889074,0.688797,0.6887769,0.6887319,0.6888492,0.6886887,0.6888078,0.6886662,0.688695,0.6887628,0.6886374,0.6886314,0.6887235,0.6886302,0.6885957,0.6886374,0.6886746,0.688734,0.688626,0.6886092,0.6886935,0.6886779,0.688626,0.6886506,0.6886248,0.6885648,0.6885624,0.6885795,0.6885048,0.6884691,0.6885597,0.6885723,0.6884469,0.6884796,0.6885414,0.6885003,0.6884232,0.6883581,0.6883941,0.6885576,0.6885015,0.6884334,0.6884997,0.6884496,0.6883986,0.6884133,0.6884544,0.6883563,0.6884163,0.6883461,0.6883494,0.6883677,0.6882954,0.6882657,0.6883299,0.6882969,0.6882348,0.6882453,0.6882465,0.6881784,0.6881928,0.688212,0.688224,0.6881337,0.6880857,0.68814,0.688068,0.6881418,0.6879657,0.6880986,0.6880929,0.6880368,0.6880626,0.6880218,0.6880083,0.6879453,0.6880209,0.6878259,0.6879141,0.6879714,0.6879318,0.6879192,0.6878175,0.687744,0.6878241,0.6877944,0.68787,0.6878634,0.6878472,0.6877881,0.6877377,0.6878394,0.6877998,0.6876918,0.6877428,0.6877617,0.6877674,0.6876768,0.6876927,0.687738,0.6876717,0.687651,0.687666,0.6876756,0.6876471,0.6876987],
                "ChannelOneLpY": [0.5258454,0.5258676,0.5259744,0.5258499,0.5259444,0.525819,0.5258244,0.5258847,0.5259129,0.5257842,0.5259306,0.5258067,0.5258061,0.5258076,0.5258715,0.5258349,0.5257776,0.5258751,0.5257152,0.5257254,0.5256735,0.5256843,0.5257062,0.5255574,0.5255856,0.5254932,0.5254749,0.5254944,0.5254362,0.5252781,0.5254065,0.5254044,0.5253414,0.5253528,0.525297,0.5253333,0.5252076,0.5252394,0.525345,0.525216,0.5251335,0.525216,0.5251626,0.5251401,0.5250423,0.5251359,0.5249658,0.5249712,0.5250204,0.5249724,0.5249091,0.5249385,0.5248191,0.5249247,0.5249277,0.5248659,0.5248764,0.5248221,0.5248863,0.5248917,0.5248197,0.5248191,0.5247636,0.524829,0.5248611,0.5248623,0.5248317,0.5248035,0.5249403,0.5248911,0.5249046,0.5247951,0.5248611,0.5248551,0.5249448,0.5249967,0.5248434,0.5248869,0.5248389,0.5248698,0.5248338,0.5248131,0.5248236,0.5248248,0.5248866,0.524871,0.5248287,0.5247912,0.5247876,0.5247582,0.5246811,0.5247075,0.5247,0.5247369,0.5246364,0.5246856,0.5246424,0.5245854,0.5247078,0.52467,0.5245356,0.524595,0.5245983,0.5245275,0.5246541,0.5245638,0.5245674,0.5244813,0.5246016,0.5246901,0.5244657,0.524595,0.5246262],
                "ChannelOneLpZ": [1.7951403,1.7951184,1.7950998,1.7950212,1.7950851,1.795221,1.7951016,1.7950716,1.795074,1.7952513,1.7950929,1.7949642,1.7950065,1.7949732,1.7950497,1.7950206,1.7949429,1.7948895,1.7949627,1.7948937,1.79493,1.7947908,1.7948658,1.7949009,1.7947629,1.7948478,1.7948688,1.7947461,1.7947701,1.7947176,1.7946528,1.794882,1.7946945,1.7946837,1.7945946,1.7946357,1.794705,1.7946468,1.7945556,1.7945394,1.7945523,1.7945418,1.7944902,1.7945436,1.794489,1.794528,1.7944176,1.7944047,1.7943579,1.7944104,1.7943591,1.794384,1.7942886,1.794156,1.7943426,1.7943054,1.7942463,1.794255,1.7942682,1.7942376,1.7943432,1.7943075,1.794306,1.7941278,1.7941959,1.7942049,1.7941668,1.7942466,1.7941002,1.7942022,1.7941119,1.7941788,1.7941338,1.7942172,1.7939799,1.7942616,1.7940372,1.7940312,1.7941569,1.7939907,1.794024,1.7940306,1.7941071,1.7940468,1.7940888,1.7940246,1.7939283,1.793937,1.7941395,1.7941008,1.7940333,1.7941068,1.7940768,1.7940183,1.7938713,1.7939973,1.7939442,1.7940156,1.7938932,1.7939016,1.7939127,1.7937867,1.7938581,1.7937699,1.7937978,1.7937456,1.7938212,1.7938035,1.7938047,1.7938668,1.7937261,1.793703,1.7937243],
                "ChannelTwoLpX": [0.0001998,0.0001902,0.0001962,0.0002052,0.0002118,0.0001974,0.0001905,0.0002118,0.0002094,0.0001848,0.0002016,0.0002073,0.0001839,0.0002094,0.0002046,0.0002082,0.0002025,0.0002052,0.0002097,0.0001929,0.0001857,0.0002076,0.0002043,0.0002037,0.0002145,0.0001758,0.0001881,0.0002064,0.0002094,0.0002193,0.0002178,0.0001944,0.0001932,0.0001782,0.0002025,0.0002034,0.0001959,0.0001998,0.0002157,0.0001944,0.0002049,0.0001983,0.0002052,0.000189,0.0001854,0.0001956,0.0002064,0.0001944,0.0002058,0.0001944,0.0002139,0.0002103,0.0001974,0.0002244,0.0002229,0.0001869,0.0001974,0.0001827,0.0002028,0.0002109,0.0002046,0.0001995,0.0001989,0.0001971,0.0002142,0.0002004,0.0001881,0.0001884,0.0002052,0.0001953,0.0002139,0.0002022,0.0002088,0.0001938,0.0002172,0.0001932,0.0002139,0.0002103,0.0002052,0.0002208,0.0001974,0.0002091,0.000198,0.0002163,0.0001953,0.0002037,0.0002172,0.0002031,0.0001932,0.0001905,0.0001935,0.0001998,0.0001971,0.0001905,0.000213,0.0001965,0.0001986,0.000204,0.0002076,0.0001902,0.0002055,0.0001935,0.0002154,0.0002088,0.0001824,0.0002088,0.0002121,0.0002127,0.0002121,0.0001893,0.0002007,0.0002178,0.0002193],
                "ChannelTwoLpY": [0.0002259,0.0002262,0.0002145,0.0002502,0.0002223,0.0002211,0.0002028,0.0002118,0.0002028,0.0002355,0.0002058,0.0002334,0.0002184,0.0002301,0.0002244,0.0002058,0.0002199,0.00021,0.0002154,0.0002268,0.0002022,0.000222,0.0002007,0.000207,0.000225,0.0002262,0.0002298,0.0002232,0.0001998,0.0002325,0.0002169,0.0001956,0.0002211,0.0002118,0.0002151,0.0001989,0.0002178,0.0002277,0.0001986,0.0002217,0.0002154,0.0002112,0.0002373,0.0002175,0.000216,0.0002037,0.0002394,0.0002001,0.0002028,0.0002103,0.0002277,0.0001995,0.0002325,0.0002268,0.0002157,0.0002115,0.0002094,0.0002118,0.0002103,0.0002199,0.0002127,0.0002055,0.000225,0.0002211,0.000204,0.0002235,0.0002076,0.0002169,0.000213,0.0002142,0.0002205,0.0001998,0.0002166,0.0002166,0.0002097,0.0002118,0.0002154,0.0002325,0.0002241,0.0002055,0.000216,0.0002145,0.0002199,0.0002241,0.0002115,0.0002106,0.0002211,0.0002337,0.0002112,0.0002058,0.0002289,0.0002145,0.0002256,0.0001983,0.0002247,0.0002112,0.0002241,0.0002091,0.000216,0.0002226,0.0002031,0.0002274,0.0002226,0.0002349,0.0002226,0.0002292,0.0002166,0.0002226,0.0002025,0.0001914,0.0002196,0.00021,0.0001998],
                "ChannelTwoLpZ": [0.0770802,0.0770802,0.0770871,0.0771045,0.0770877,0.0770871,0.0771027,0.0770811,0.0771141,0.077091,0.0771024,0.0770766,0.0770928,0.0770874,0.0771006,0.0771174,0.0770871,0.0771111,0.0770958,0.0771042,0.0770922,0.0770784,0.0770955,0.0770919,0.0770706,0.0770895,0.0771045,0.0771018,0.0770859,0.0770715,0.0770775,0.0770886,0.0770916,0.0770964,0.0770979,0.0771048,0.0770736,0.0771036,0.0770712,0.0770877,0.0770919,0.0770961,0.077094,0.077097,0.0770934,0.0770754,0.0770856,0.0770739,0.0771072,0.0770799,0.0770796,0.077088,0.0771045,0.0771105,0.077106,0.0770793,0.0770718,0.0770847,0.0770742,0.0771039,0.0770871,0.0770736,0.07707,0.0770829,0.0770754,0.0770781,0.0770853,0.0771093,0.0770748,0.0770883,0.0770652,0.077094,0.0770832,0.0770775,0.0770733,0.0770994,0.0770811,0.0770991,0.0770745,0.0770895,0.0770931,0.0770832,0.0771009,0.0770796,0.0770757,0.0770934,0.0770766,0.0770856,0.0770733,0.0770754,0.0770853,0.0770967,0.0770529,0.077079,0.0771,0.0770874,0.0770859,0.077088,0.0770967,0.0770901,0.0771078,0.0771024,0.0771105,0.0770646,0.077073,0.0770871,0.0770874,0.0770796,0.0770715,0.0770811,0.0770919,0.0770934,0.0770805]
            }
        },
        {
            "type": "Feature",
            "id": "dev-41134232",
            "geometry": {
                "type": "Point",
                "coordinates": [102.09648132324219, 30.05817985534668]
            },
            "properties": {
                "OBJECTID": "dev-41134232",
                "名称": "5021",
                "经度": 102.09648132324219,
                "纬度": 30.05817985534668,
                "ChannelOneLpX": [-0.5040471,-0.5039946,-0.5036499,-0.5033727,-0.5026389,-0.5025456,-0.5026026,-0.5026926,-0.5026968,-0.5019075,-0.5017968,-0.5014563,-0.5012835,-0.5009877,-0.5005902,-0.5001738,-0.5002158,-0.5001927,-0.4997697,-0.4997982,-0.4990923,-0.4990287,-0.4986972,-0.4985367,-0.4978803,-0.4976424,-0.4977162,-0.4969647,-0.496812,-0.4963539,-0.4962591,-0.4955964,-0.4950252,-0.4950165,-0.4940424,-0.4942884,-0.4939911,-0.4938189,-0.4932606,-0.4931292,-0.4928808,-0.4923429,-0.4920798,-0.4918212,-0.4915587,-0.4917027,-0.4910349,-0.4911612,-0.4903605,-0.4901877,-0.4899186,-0.4893627,-0.489507,-0.4889931,-0.4885455,-0.4888218,-0.4884411,-0.4877736,-0.4874337,0.5453406,0.5453709,0.5454174,0.5453868,0.5456331,0.5455086,0.5454126,0.5448669,0.5453052,0.5456835,0.5455809,0.5456508,0.5456604,0.5456268,0.5458596,0.5459271,0.5454621,0.5460021,0.5456565,0.5459967,0.5458308,0.5459001,0.545841,0.5461353,0.5459739,0.5460948,0.5456427,0.5460981,0.5462328,0.5462502,0.5465034,0.5463414,0.5463252,0.5462784,0.5462943,0.5461101,0.5469606,0.5465808,0.5468142,0.5465886,0.5466588,0.5468028,0.5469003,0.5469744,0.5470191,0.5473221,0.5474661,0.5472918,0.5472168,0.5475216,0.547434,0.5476479,0.548046,0.5479017,0.5476245,0.5479788,0.5479947,0.5483226,0.5488371,0.5483709,0.5484996,0.5484606,0.5484762,0.548529,0.5487879,0.5487987,0.5486433,0.5488797,0.549474,0.5492166,0.5496021,0.5492313,0.5493306,0.5493066,0.5494323,0.5497386,0.5496237,0.5496693,0.5500095,0.5493537,0.5501856,0.5494833,0.5498529,0.5500065,0.5501337,0.5502204,0.5502576,0.5504046,0.5503218,0.5505804,0.5504187,0.550698,0.550665,0.5506305,0.5506338,0.5505018,0.5507958,0.5508,0.550929,0.5509758,0.5509611,0.5512536,0.5513172,0.5518506,0.5517318,0.5515905,0.5516484,0.5516928,0.5518032,0.5517045,0.5518458,0.5519214,0.5519619],
                "ChannelOneLpY": [-0.4687653,-0.4681428,-0.4681263,-0.4685853,-0.4685739,-0.4672293,-0.4672149,-0.4660014,-0.4657896,-0.4665036,-0.4659666,-0.4657623,-0.4653918,-0.4649178,-0.4651737,-0.4656528,-0.4641939,-0.4638033,-0.4642635,-0.4633755,-0.4635063,-0.4623654,-0.4625844,-0.4619208,-0.4623636,-0.4622685,-0.4610925,-0.461391,-0.4600848,-0.460356,-0.4595484,-0.4598022,-0.4598922,-0.4591536,-0.459114,-0.4581312,-0.4579941,-0.4579557,-0.4574943,-0.4577046,-0.4566873,-0.4566372,-0.4563675,-0.4557705,-0.4552929,-0.4546773,-0.4551378,-0.4539606,-0.4546533,-0.4539138,-0.4539978,-0.4536852,-0.4535025,-0.4530093,-0.4532181,-0.4518813,-0.4519713,-0.4518939,-0.4518057,0.5574978,0.5576007,0.5576424,0.5577405,0.5574822,0.5578023,0.5580144,0.5579607,0.558138,0.5576271,0.5579259,0.5579034,0.557928,0.5580222,0.5580432,0.5579373,0.5587056,0.5582181,0.558714,0.5583234,0.5587089,0.558486,0.5587761,0.5584068,0.5587863,0.5584851,0.5601096,0.5589603,0.5588193,0.5589891,0.5588325,0.5591046,0.5594016,0.5594406,0.5596344,0.5601186,0.5590857,0.5598003,0.559425,0.55992,0.5599743,0.5598645,0.5597454,0.5598738,0.5598459,0.5601042,0.5598546,0.5604105,0.5608653,0.5599518,0.5604801,0.5601783,0.560538,0.5602287,0.5604879,0.5606403,0.5607285,0.5607945,0.5597589,0.5609643,0.5608227,0.561084,0.5612268,0.5612754,0.5613141,0.5614776,0.5619543,0.5614413,0.5608101,0.5613684,0.5615064,0.5620434,0.5620698,0.5619045,0.5622897,0.5619453,0.5623002,0.562404,0.5622474,0.5630949,0.5619861,0.5632116,0.5629224,0.5627886,0.5627841,0.5628822,0.5630247,0.5631489,0.5636511,0.5632086,0.5634321,0.5635872,0.5634507,0.5637333,0.5640372,0.5642637,0.5638839,0.5640639,0.5640549,0.5641359,0.5643624,0.5639808,0.5640432,0.5629224,0.5639385,0.5639856,0.5641995,0.5642241,0.5641608,0.5646252,0.5645235,0.5644818,0.5645064],
                "ChannelOneLpZ": [0.1351059,0.1352142,0.1353507,0.1354545,0.1358031,0.1360305,0.1361298,0.1364499,0.1365525,0.1368486,0.1373367,0.1373361,0.1374222,0.1379181,0.1380609,0.138249,0.138555,0.1385673,0.1384461,0.1388262,0.1391742,0.1394898,0.1398354,0.1399749,0.1403277,0.1404258,0.1405833,0.1412076,0.14163,0.1417647,0.1419564,0.1422687,0.1425828,0.142497,0.1430043,0.1433145,0.1436784,0.1439838,0.1441941,0.1445883,0.144714,0.1450338,0.1453653,0.1456371,0.1457877,0.1462449,0.1462521,0.1466247,0.1466379,0.1471122,0.1473243,0.1473132,0.147585,0.1482345,0.1483998,0.1485714,0.1483878,0.1489167,0.1491555,1.0210956,1.0211922,1.0211148,1.0211361,1.0211823,1.0210164,1.021341,1.0202502,1.0212765,1.0213002,1.0213587,1.0214088,1.021488,1.0214136,1.0215399,1.0215672,1.0219944,1.0217172,1.0216878,1.0217025,1.0218807,1.0217919,1.021743,1.0218045,1.0218327,1.0216362,1.0222917,1.0220304,1.0219506,1.0219605,1.0220019,1.0220706,1.0221498,1.0221342,1.0221969,1.0221657,1.02174,1.0223856,1.0224027,1.0225182,1.0226268,1.0224912,1.0225884,1.0226508,1.0226883,1.0227234,1.0230978,1.0227786,1.0223736,1.0229286,1.0230828,1.023024,1.0230345,1.0231698,1.0232751,1.0233723,1.023489,1.023474,1.0237128,1.0236783,1.0237875,1.0239531,1.0240401,1.0240959,1.0241205,1.0242177,1.0242555,1.0243782,1.0243092,1.0243581,1.0244565,1.024554,1.0246794,1.024707,1.0247364,1.0248288,1.0249434,1.0248978,1.0248828,1.0249479,1.0250391,1.0251906,1.0252362,1.0253178,1.025301,1.0253328,1.0254252,1.0254279,1.0257036,1.025544,1.0255437,1.0258242,1.0258455,1.0257411,1.0257579,1.0259904,1.0259787,1.0259655,1.0260774,1.026105,1.026249,1.026315,1.0263549,1.0263987,1.0262163,1.0264857,1.0265547,1.0266099,1.0266909,1.0267644,1.0268061,1.0268367,1.0268076],
                "ChannelTwoLpX": [0.0000396,0.0000123,0.0000291,0.0000285,0.000036,0.0000306,0.0000354,0.0000351,0.0000294,0.0000294,0.0000192,0.0000255,0.0000318,0.0000177,0.0000225,0.0000354,0.0000075,0.0000219,0.0000462,0.0000246,0.0000225,0.0000276,0.0000423,0.0000339,0.0000453,0.0000054,0.0000348,0.0000414,0.0000192,0.0000264,0.0000288,0.0000246,0.0000201,0.0000261,0.0000117,0.0000315,0.0000396,0.0000345,0.0000327,0.0000309,0.0000381,0.0000375,0.0000165,0.0000105,0.000018,0.0000327,0.0000108,0.0000495,0.0000444,0.0000357,0.0000243,0.0000246,0.0000252,0.0000276,0.0000315,0.0000291,0.0000399,0.0000039,0.0000447,0.0000339,0.0000234,0.0000327,0.0000357,0.0000225,0.0000363,0.0000276,0.0000231,0.00003,0.0000303,0.0000393,0.0000273,0.0000252,0.0000354,0.0000381,0.0000168,0.0000165,0.0000303,0.0000258,0.0000093,0.0000165,0.0000195,0.0000297,0.0000357,0.000051,0.0000219,0.0000165,0.0000231,0.0000225,0.0000312,0.0000348,0.0000321,0.000027,0.0000219,0.0000264,0.0000225,0.0000351,0.0000216,0.0000264,0.0000306,0.0000291,0.0000345,0.0000192,0.0000246,0.000033,0.000024,0.000015,0.0000426,0.0000261,0.0000039,0.0000378,0.0000252,0.0000159,0.0000195,0.0000222,0.0000267,0.0000345,0.0000426,0.000021,0.000024,0.00003,0.0000228,0.0000267,0.0000123,0.0000366,0.0000267,0.0000351,0.0000192,0.0000288,0.0000138,0.0000402,0.0000222,0.0000213,0.0000186,0.0000369,0.0000336,0.0000468,0.0000195,0.0000339,0.0000324,0.0000192,0.0000045,0.0000405,0.0000189,0.0000342,0.0000288,0.0000306,0.0000345,0.0000273,0.0000168,0.0000162,-0.0000072,0.0000276,0.0000021,0.0000348,0.0000195,0.0000207,0.000018,0.0000369,0.0000276,0.0000336,0.0000267,0.0000273,0.0000324,0.0000552,0.0000339,0.000024,0.0000249,0.0000354,0.0000342,0.0000207,0.000048,0.0000195],
                "ChannelTwoLpY": [-0.0004542,-0.0004545,-0.0004533,-0.0004443,-0.0004356,-0.000441,-0.0004374,-0.0004521,-0.0004734,-0.0004284,-0.0004374,-0.0004539,-0.0004434,-0.0004392,-0.0004479,-0.0004341,-0.000459,-0.0004665,-0.0004203,-0.0004341,-0.0004452,-0.0004737,-0.0004395,-0.0004488,-0.0004143,-0.000432,-0.000444,-0.0004365,-0.000435,-0.0004443,-0.0004569,-0.0004533,-0.0004347,-0.0004377,-0.0004359,-0.0004437,-0.0004557,-0.0004398,-0.0004467,-0.0004308,-0.0004416,-0.0004566,-0.0004536,-0.0004488,-0.0004464,-0.0004872,-0.0004722,-0.0004752,-0.0004413,-0.0004614,-0.0004443,-0.0004602,-0.0004404,-0.0004557,-0.0004209,-0.0004599,-0.0004458,-0.0004515,-0.0004449,-0.0004563,-0.0004587,-0.0004443,-0.0004359,-0.0004332,-0.0004515,-0.0004539,-0.0004344,-0.0004515,-0.0004224,-0.0004557,-0.00045,-0.0004509,-0.0004563,-0.0004554,-0.0004284,-0.0004803,-0.0004416,-0.0004491,-0.0004521,-0.0004503,-0.0004491,-0.0004479,-0.0004551,-0.0004506,-0.0004494,-0.0004752,-0.0004521,-0.0004518,-0.0004632,-0.0004401,-0.000453,-0.0004491,-0.0004464,-0.0004413,-0.0004677,-0.0003777,-0.0004284,-0.000417,-0.0004461,-0.0004497,-0.0004464,-0.0004605,-0.000441,-0.0004428,-0.000444,-0.0004638,-0.0004632,-0.0004638,-0.0004485,-0.0004608,-0.0004437,-0.0004344,-0.0004326,-0.0004503,-0.0004485,-0.000462,-0.0004668,-0.0004119,-0.0004458,-0.0004563,-0.0004608,-0.0004692,-0.000441,-0.0004296,-0.0004479,-0.0004305,-0.0004416,-0.0004383,-0.0004398,-0.0004362,-0.000474,-0.000444,-0.0004437,-0.0004494,-0.0004308,-0.0004599,-0.000435,-0.0004392,-0.0004434,-0.0004371,-0.0004593,-0.0004344,-0.0004395,-0.0004512,-0.0004497,-0.0004533,-0.0004386,-0.0004611,-0.0004449,-0.0004455,-0.000477,-0.0004797,-0.00045,-0.0004527,-0.0004524,-0.0004536,-0.0004383,-0.0004383,-0.0004476,-0.0004509,-0.0004548,-0.0004377,-0.0004215,-0.0003969,-0.0004461,-0.0004557,-0.0004449,-0.000432,-0.0004452,-0.0004557,-0.0004338,-0.0004407],
                "ChannelTwoLpZ": [0.0770802,0.0770802,0.0770871,0.0771045,0.0770877,0.0770871,0.0771027,0.0770811,0.0771141,0.077091,0.0771024,0.0770766,0.0770928,0.0770874,0.0771006,0.0771174,0.0770871,0.0771111,0.0770958,0.0771042,0.0770922,0.0770784,0.0770955,0.0770919,0.0770706,0.0770895,0.0771045,0.0771018,0.0770859,0.0770715,0.0770775,0.0770886,0.0770916,0.0770964,0.0770979,0.0771048,0.0770736,0.0771036,0.0770712,0.0770877,0.0770919,0.0770961,0.077094,0.077097,0.0770934,0.0770754,0.0770856,0.0770739,0.0771072,0.0770799,0.0770796,0.077088,0.0771045,0.0771105,0.077106,0.0770793,0.0770718,0.0770847,0.0770742,0.0771039,0.0770871,0.0770736,0.07707,0.0770829,0.0770754,0.0770781,0.0770853,0.0771093,0.0770748,0.0770883,0.0770652,0.077094,0.0770832,0.0770775,0.0770733,0.0770994,0.0770811,0.0770991,0.0770745,0.0770895,0.0770931,0.0770832,0.0771009,0.0770796,0.0770757,0.0770934,0.0770766,0.0770856,0.0770733,0.0770754,0.0770853,0.0770967,0.0770529,0.077079,0.0771,0.0770874,0.0770859,0.077088,0.0770967,0.0770901,0.0771078,0.0771024,0.0771105,0.0770646,0.077073,0.0770871,0.0770874,0.0770796,0.0770715,0.0770811,0.0770919,0.0770934,0.0770805]               
            }
        }
    ]
}




