{"type":"FeatureCollection","features":[{"type":"Feature","id":0,"geometry":{"type":"Point","coordinates":[95.451785000000001,29.906575]},"properties":{"FID":0,"新编号":"NSL-074","市_州_":"林芝","县_市_":"波密","乡镇":"易贡乡","名称":"卡贡弄巴（古乡沟）","位置":"K4044","日期":"19631","具体时":"夜至30日晨","经度_小":95.451785000000001,"纬度_小":29.906575,"类型":"沟谷型","灾害类":"冰川型泥石流","灾害性":" ","F_级水":"雅鲁藏布","F_级水_1":"帕隆藏布","F_级水_2":" ","流域面":28.5,"冰川平":37,"冰川面":3710000,"F21":" ","冰川_1":0.15099699999999999,"流量_m":2465.0999999999999,"一次固":340.60000000000002,"规模等":"特大型","地形地":"宽谷","相对河":"右岸","主沟长":7.6100000000000003,"沟口高":3540,"最大高":6298,"高差_m":2758,"平均比":362.41787099999999,"泥石流":"有","堆积扇":3489,"堆积_1":1557,"堆积_12":4143354,"堆积扇_":0.16863500000000001,"是否堵":"是","受灾人":" ","死亡_人":" ","失踪_人":" ","受伤_人":" ","直接经":0,"威胁人":0,"威胁财":0,"备注":"毁灭农田、村舍和寺庙","资料来":"西藏泥石流与环境p31，23-帕隆藏布流域海洋性冰川区泥石流特征研究","tem":3.6161300000000001,"slope_slop":2.7412700000000001,"slope":28.689599999999999,"rainfall":777.91800000000001,"ndvi":0.45280399999999998,"lith":3,"dem_final":2632,"aspect":186.90100000000001,"hd":127.688}},{"type":"Feature","id":1,"geometry":{"type":"Point","coordinates":[95.319253000000003,29.987566999999999]},"properties":{"FID":1,"新编号":"NSL-079","市_州_":"林芝","县_市_":"波密","乡镇":"松绕村","名称":"天摩沟","位置":"K4062+30","日期":"39329","具体时":" ","经度_小":95.319253000000003,"纬度_小":29.987566999999999,"类型":"沟谷型","灾害类":"冰川型泥石流","灾害性":" ","F_级水":"雅鲁藏布","F_级水_1":"帕隆藏布","F_级水_2":" ","流域面":17.550000000000001,"冰川平":36.670000000000002,"冰川面":1200000,"F21":" ","冰川_1":0.068376000000000006,"流量_m":855.39999999999998,"一次固":74.299999999999997,"规模等":"特大型","地形地":"过渡段","相对河":"左岸","主沟长":6.9699999999999998,"沟口高":2485,"最大高":5523,"高差_m":3038,"平均比":435.86800599999998,"泥石流":"有","堆积扇":737,"堆积_1":962,"堆积_12":434149,"堆积扇_":0.024738,"是否堵":"是","受灾人":" ","死亡_人":"1","失踪_人":"7","受伤_人":"9","直接经":500,"威胁人":0,"威胁财":0,"备注":"17人伤亡或失踪，8处民房，农田2km2，牲口40头被冲走，松绕吊桥被毁，车辆1部，318国道中断43小时","资料来":"14-基于RS的西藏帕隆藏布流域典型泥石流灾害链分析，26-西藏尖姆普曲泥石流","tem":4.1767700000000003,"slope_slop":3.5208599999999999,"slope":19.2592,"rainfall":873.71699999999998,"ndvi":0.52002300000000001,"lith":3,"dem_final":2469,"aspect":200.86799999999999,"hd":67.446799999999996}},{"type":"Feature","id":2,"geometry":{"type":"Point","coordinates":[94.937066999999999,29.613247000000001]},"properties":{"FID":2,"新编号":"NSL-125","市_州_":"林芝","县_市_":"米林","乡镇":"直白村","名称":"则隆弄","位置":"南迦巴瓦峰西坡","日期":"25083","具体时":" ","经度_小":94.937066999999999,"纬度_小":29.613247000000001,"类型":"沟谷型","灾害类":"暴雨型泥石流","灾害性":" ","F_级水":"雅鲁藏布","F_级水_1":" ","F_级水_2":" ","流域面":10.800000000000001,"冰川平":23.399999999999999,"冰川面":0,"F21":" ","冰川_1":0,"流量_m":221.2825,"一次固":16.117149999999999,"规模等":"特大型","地形地":"过渡段","相对河":"右岸","主沟长":6.5300000000000002,"沟口高":3022,"最大高":5435,"高差_m":2413,"平均比":369.52526799999998,"泥石流":"有","堆积扇":2500,"堆积_1":1274,"堆积_12":1957245,"堆积扇_":0.181226,"是否堵":"是","受灾人":" ","死亡_人":" ","失踪_人":" ","受伤_人":" ","直接经":0,"威胁人":0,"威胁财":0,"备注":"10m堆积坝，次日上午决堤","资料来":"40-雅鲁藏布江卧龙至直白河段地质灾害发育特征及危险性评价","tem":8.8305799999999994,"slope_slop":3.61083,"slope":28.128299999999999,"rainfall":729.44000000000005,"ndvi":0.58617300000000006,"lith":3,"dem_final":2980,"aspect":227.50299999999999,"hd":122.67400000000001}},{"type":"Feature","id":3,"geometry":{"type":"Point","coordinates":[94.937777999999994,29.749883000000001]},"properties":{"FID":3,"新编号":"NSL-131","市_州_":"林芝","县_市_":"米林","乡镇":"派镇","名称":"色东普","位置":" ","日期":"43390","具体时":"0.20833333333","经度_小":94.937777999999994,"纬度_小":29.749883000000001,"类型":"沟谷型","灾害类":"冰川型泥石流","灾害性":" ","F_级水":"雅鲁藏布","F_级水_1":" ","F_级水_2":" ","流域面":66.560000000000002,"冰川平":26.800000000000001,"冰川面":18800000,"F21":" ","冰川_1":0.28245199999999998,"流量_m":3870.3000000000002,"一次固":448.10000000000002,"规模等":"特大型","地形地":"过渡段","相对河":"左岸","主沟长":12.699999999999999,"沟口高":2760,"最大高":6557,"高差_m":3797,"平均比":298.97637800000001,"泥石流":"无","堆积扇":0,"堆积_1":0,"堆积_12":0,"堆积扇_":0,"是否堵":"是","受灾人":"5758","死亡_人":" ","失踪_人":" ","受伤_人":" ","直接经":0,"威胁人":0,"威胁财":0,"备注":" ","资料来":"39-雅鲁藏布江色东普沟崩滑-碎屑流堵江灾害初步研究","tem":8.52346,"slope_slop":3.4992200000000002,"slope":32.7851,"rainfall":724.63800000000003,"ndvi":0.39030100000000001,"lith":3,"dem_final":2751,"aspect":217.078,"hd":150.24600000000001}}]}